*******************************************************************************
Ephemeris / WWW_USER Mon Mar 24 09:08:57 2025 Pasadena, USA      / Horizons    
*******************************************************************************
Target body name: 584778 (2017 RG16)              {source: JPL#32}
Center body name: Earth (399)                     {source: DE441}
Center-site name: Mauna Kea
*******************************************************************************
Start time      : A.D. 2019-Jan-27 04:20:00.0000 UT      
Stop  time      : A.D. 2019-Jan-27 16:48:00.0000 UT      
Step-size       : 1 minutes
*******************************************************************************
Target pole/equ : undefined
Target radii    : undefined                                                    
Center geodetic : 204.5278, 19.8260847, 4.21024   {E-lon(deg),Lat(deg),Alt(km)}
Center cylindric: 204.5278, 6006.35451, 2151.0229 {E-lon(deg),Dxy(km),Dz(km)}
Center pole/equ : ITRF93                          {East-longitude positive}
Center radii    : 6378.137, 6378.137, 6356.752 km {Equator_a, b, pole_c}       
Target primary  : Sun
Vis. interferer : MOON (R_eq= 1737.400) km        {source: DE441}
Rel. light bend : Sun                             {source: DE441}
Rel. lght bnd GM: 1.3271E+11 km^3/s^2                                          
Small-body perts: Yes                             {source: SB441-N16}
Atmos refraction: NO (AIRLESS)
RA format       : HMS
Time format     : CAL 
Calendar mode   : Mixed Julian/Gregorian
RTS-only print  : NO       
EOP file        : eop.250321.p250617                                           
EOP coverage    : DATA-BASED 1962-JAN-20 TO 2025-MAR-21. PREDICTS-> 2025-JUN-16
Units conversion: 1 au= 149597870.700 km, c= 299792.458 km/s, 1 day= 86400.0 s 
Table cut-offs 1: Elevation (-90.0deg=NO ),Airmass (>38.000=NO), Daylight (YES)
Table cut-offs 2: Solar elongation (  0.0,180.0=NO ),Local Hour Angle( 0.0=NO )
Table cut-offs 3: RA/DEC angular rate (     0.0=NO )                           
*******************************************************************************
Initial IAU76/J2000 heliocentric ecliptic osculating elements (au, days, deg.):
  EPOCH=  2458734.5 ! 2019-Sep-08.00 (TDB)         Residual RMS= .14786        
   EC= .9085798704456644   QR= 7.106644157383132   TP= 2457926.6828443832      
   OM= .547367620295521    W=  323.0265763955561   IN= 74.86683883750447       
  Equivalent ICRF heliocentric cartesian coordinates (au, au/d):
   X= 8.360714527577798E+00  Y=-2.241293784086399E-01  Z= 2.069107023705337E+00
  VX= 1.416407206608659E-03 VY=-1.132497676729848E-03 VZ= 7.848232694960624E-03
Asteroid physical parameters (km, seconds, rotational period in hours):        
   GM= n.a.                RAD= n.a.               ROTPER= n.a.                
   H= 11.32                G= .150                 B-V= n.a.                   
                           ALBEDO= n.a.            STYP= n.a.                  
*******************************************************************************
 Date__(UT)__HR:MN     R.A._________(ICRF)_________DEC
******************************************************
$$SOE
 2019-Jan-27 10:29  m  23 41 28.367464 -00 06 54.66843
 2019-Jan-27 10:30  m  23 41 28.378465 -00 06 54.46515
 2019-Jan-27 10:31  m  23 41 28.389468 -00 06 54.26187
 2019-Jan-27 10:32  m  23 41 28.400472 -00 06 54.05860
 2019-Jan-27 10:33  m  23 41 28.411476 -00 06 53.85532
 2019-Jan-27 10:34  m  23 41 28.422482 -00 06 53.65204
 2019-Jan-27 10:35  m  23 41 28.433488 -00 06 53.44877
 2019-Jan-27 10:36  m  23 41 28.444496 -00 06 53.24549
 2019-Jan-27 10:37  m  23 41 28.455505 -00 06 53.04221
 2019-Jan-27 10:38  m  23 41 28.466514 -00 06 52.83893
 2019-Jan-27 10:39  m  23 41 28.477525 -00 06 52.63565
 2019-Jan-27 10:40  m  23 41 28.488537 -00 06 52.43237
 2019-Jan-27 10:41  m  23 41 28.499549 -00 06 52.22909
 2019-Jan-27 10:42  m  23 41 28.510563 -00 06 52.02580
 2019-Jan-27 10:43  m  23 41 28.521578 -00 06 51.82252
 2019-Jan-27 10:44  m  23 41 28.532594 -00 06 51.61924
 2019-Jan-27 10:45  m  23 41 28.543610 -00 06 51.41595
 2019-Jan-27 10:46  m  23 41 28.554628 -00 06 51.21267
 2019-Jan-27 10:47  m  23 41 28.565647 -00 06 51.00938
 2019-Jan-27 10:48  m  23 41 28.576666 -00 06 50.80610
 2019-Jan-27 10:49  m  23 41 28.587687 -00 06 50.60281
 2019-Jan-27 10:50  m  23 41 28.598708 -00 06 50.39953
 2019-Jan-27 10:51  m  23 41 28.609731 -00 06 50.19624
 2019-Jan-27 10:52  m  23 41 28.620754 -00 06 49.99295
 2019-Jan-27 10:53  m  23 41 28.631779 -00 06 49.78966
 2019-Jan-27 10:54  m  23 41 28.642804 -00 06 49.58637
 2019-Jan-27 10:55  m  23 41 28.653830 -00 06 49.38308
 2019-Jan-27 10:56  m  23 41 28.664858 -00 06 49.17979
 2019-Jan-27 10:57  m  23 41 28.675886 -00 06 48.97650
 2019-Jan-27 10:58  m  23 41 28.686915 -00 06 48.77321
 2019-Jan-27 10:59  m  23 41 28.697945 -00 06 48.56992
 2019-Jan-27 11:00  m  23 41 28.708976 -00 06 48.36662
 2019-Jan-27 11:01  m  23 41 28.720008 -00 06 48.16333
 2019-Jan-27 11:02  m  23 41 28.731041 -00 06 47.96004
 2019-Jan-27 11:03  m  23 41 28.742074 -00 06 47.75674
 2019-Jan-27 11:04  m  23 41 28.753109 -00 06 47.55345
 2019-Jan-27 11:05  m  23 41 28.764144 -00 06 47.35015
 2019-Jan-27 11:06  m  23 41 28.775181 -00 06 47.14685
 2019-Jan-27 11:07  m  23 41 28.786218 -00 06 46.94356
 2019-Jan-27 11:08  m  23 41 28.797256 -00 06 46.74026
 2019-Jan-27 11:09  m  23 41 28.808296 -00 06 46.53696
 2019-Jan-27 11:10  m  23 41 28.819336 -00 06 46.33366
 2019-Jan-27 11:11  m  23 41 28.830376 -00 06 46.13036
 2019-Jan-27 11:12  m  23 41 28.841418 -00 06 45.92706
 2019-Jan-27 11:13  m  23 41 28.852461 -00 06 45.72376
 2019-Jan-27 11:14  m  23 41 28.863504 -00 06 45.52046
 2019-Jan-27 11:15  m  23 41 28.874549 -00 06 45.31716
 2019-Jan-27 11:16  m  23 41 28.885594 -00 06 45.11386
 2019-Jan-27 11:17  m  23 41 28.896640 -00 06 44.91055
 2019-Jan-27 11:18  m  23 41 28.907687 -00 06 44.70725
 2019-Jan-27 11:19  m  23 41 28.918735 -00 06 44.50394
 2019-Jan-27 11:20  m  23 41 28.929783 -00 06 44.30064
 2019-Jan-27 11:21  m  23 41 28.940833 -00 06 44.09733
 2019-Jan-27 11:22  m  23 41 28.951883 -00 06 43.89403
 2019-Jan-27 11:23  m  23 41 28.962934 -00 06 43.69072
 2019-Jan-27 11:24  m  23 41 28.973986 -00 06 43.48741
 2019-Jan-27 11:25  m  23 41 28.985039 -00 06 43.28411
 2019-Jan-27 11:26  m  23 41 28.996092 -00 06 43.08080
 2019-Jan-27 11:27  m  23 41 29.007146 -00 06 42.87749
 2019-Jan-27 11:28  m  23 41 29.018202 -00 06 42.67418
 2019-Jan-27 11:29  m  23 41 29.029258 -00 06 42.47087
 2019-Jan-27 11:30  m  23 41 29.040314 -00 06 42.26756
 2019-Jan-27 11:31  m  23 41 29.051372 -00 06 42.06425
 2019-Jan-27 11:32  m  23 41 29.062430 -00 06 41.86093
 2019-Jan-27 11:33  m  23 41 29.073489 -00 06 41.65762
 2019-Jan-27 11:34  m  23 41 29.084549 -00 06 41.45431
 2019-Jan-27 11:35  m  23 41 29.095610 -00 06 41.25099
 2019-Jan-27 11:36  m  23 41 29.106671 -00 06 41.04768
 2019-Jan-27 11:37  m  23 41 29.117733 -00 06 40.84436
 2019-Jan-27 11:38  m  23 41 29.128796 -00 06 40.64105
 2019-Jan-27 11:39  m  23 41 29.139860 -00 06 40.43773
 2019-Jan-27 11:40  m  23 41 29.150924 -00 06 40.23442
 2019-Jan-27 11:41  m  23 41 29.161990 -00 06 40.03110
 2019-Jan-27 11:42  m  23 41 29.173055 -00 06 39.82778
 2019-Jan-27 11:43  m  23 41 29.184122 -00 06 39.62446
 2019-Jan-27 11:44  m  23 41 29.195190 -00 06 39.42114
 2019-Jan-27 11:45  m  23 41 29.206258 -00 06 39.21782
 2019-Jan-27 11:46  m  23 41 29.217326 -00 06 39.01450
 2019-Jan-27 11:47  m  23 41 29.228396 -00 06 38.81118
 2019-Jan-27 11:48  m  23 41 29.239466 -00 06 38.60786
 2019-Jan-27 11:49  m  23 41 29.250537 -00 06 38.40454
 2019-Jan-27 11:50  m  23 41 29.261609 -00 06 38.20121
 2019-Jan-27 11:51  m  23 41 29.272681 -00 06 37.99789
 2019-Jan-27 11:52  m  23 41 29.283754 -00 06 37.79457
 2019-Jan-27 11:53  m  23 41 29.294828 -00 06 37.59124
 2019-Jan-27 11:54  m  23 41 29.305902 -00 06 37.38792
 2019-Jan-27 11:55  m  23 41 29.316977 -00 06 37.18459
 2019-Jan-27 11:56  m  23 41 29.328053 -00 06 36.98126
 2019-Jan-27 11:57  m  23 41 29.339130 -00 06 36.77794
 2019-Jan-27 11:58  m  23 41 29.350207 -00 06 36.57461
 2019-Jan-27 11:59  m  23 41 29.361284 -00 06 36.37128
 2019-Jan-27 12:00  m  23 41 29.372363 -00 06 36.16795
 2019-Jan-27 12:01  m  23 41 29.383442 -00 06 35.96462
 2019-Jan-27 12:02  m  23 41 29.394522 -00 06 35.76129
 2019-Jan-27 12:03  m  23 41 29.405602 -00 06 35.55796
 2019-Jan-27 12:04  m  23 41 29.416683 -00 06 35.35463
 2019-Jan-27 12:05  m  23 41 29.427764 -00 06 35.15130
 2019-Jan-27 12:06  m  23 41 29.438847 -00 06 34.94797
 2019-Jan-27 12:07  m  23 41 29.449930 -00 06 34.74463
 2019-Jan-27 12:08  m  23 41 29.461013 -00 06 34.54130
 2019-Jan-27 12:09  m  23 41 29.472097 -00 06 34.33796
 2019-Jan-27 12:10  m  23 41 29.483182 -00 06 34.13463
 2019-Jan-27 12:11  m  23 41 29.494267 -00 06 33.93129
 2019-Jan-27 12:12  m  23 41 29.505353 -00 06 33.72796
 2019-Jan-27 12:13  m  23 41 29.516439 -00 06 33.52462
 2019-Jan-27 12:14  m  23 41 29.527526 -00 06 33.32128
 2019-Jan-27 12:15  m  23 41 29.538614 -00 06 33.11795
 2019-Jan-27 12:16  m  23 41 29.549702 -00 06 32.91461
 2019-Jan-27 12:17  m  23 41 29.560791 -00 06 32.71127
 2019-Jan-27 12:18  m  23 41 29.571880 -00 06 32.50793
 2019-Jan-27 12:19  m  23 41 29.582970 -00 06 32.30459
 2019-Jan-27 12:20  m  23 41 29.594060 -00 06 32.10125
 2019-Jan-27 12:21  m  23 41 29.605151 -00 06 31.89791
 2019-Jan-27 12:22  m  23 41 29.616243 -00 06 31.69456
 2019-Jan-27 12:23  m  23 41 29.627335 -00 06 31.49122
 2019-Jan-27 12:24  m  23 41 29.638427 -00 06 31.28788
 2019-Jan-27 12:25  m  23 41 29.649520 -00 06 31.08453
 2019-Jan-27 12:26  m  23 41 29.660614 -00 06 30.88119
 2019-Jan-27 12:27  m  23 41 29.671708 -00 06 30.67784
 2019-Jan-27 12:28  m  23 41 29.682803 -00 06 30.47450
 2019-Jan-27 12:29  m  23 41 29.693898 -00 06 30.27115
 2019-Jan-27 12:30  m  23 41 29.704994 -00 06 30.06780
 2019-Jan-27 12:31  m  23 41 29.716090 -00 06 29.86446
